{"type": "FeatureCollection", "features": [ {"type": "Feature", "properties": {"norad_id": 44476, "name": "INTELSAT 39 (IS-39)", "group": "intelsat", "lat": 0.009101259322431249, "lon": 135.18819084808138, "alt_km": 35782.46625624903, "timestamp": "2025-12-10T23:33:12.494936+00:00", "meta": {"OBJECT_NAME": "INTELSAT 39 (IS-39)", "OBJECT_ID": "2019-049B", "EPOCH": "2025-12-10T15:08:36.189888", "MEAN_MOTION": 1.00270491, "ECCENTRICITY": 9.698e-05, "INCLINATION": 0.018, "RA_OF_ASC_NODE": 324.9405, "ARG_OF_PERICENTER": 184.1246, "MEAN_ANOMALY": 219.6342, "EPHEMERIS_TYPE": 0, "CLASSIFICATION_TYPE": "U", "NORAD_CAT_ID": 44476, "ELEMENT_SET_NO": 999, "REV_AT_EPOCH": 2323, "BSTAR": 0, "MEAN_MOTION_DOT": 3.8e-07, "MEAN_MOTION_DDOT": 0}, "tle": {"line1": "1 44476U 19049B   25344.63097442  .00000038  00000+0  00000+0 0  9990", "line2": "2 44476   0.0180 324.9405 0000969 184.1246 219.6342  1.00270491 23234"}}, "geometry": {"type": "Point", "coordinates": [135.18819084808138, 0.009101259322431249]}}, {"type": "Feature", "properties": {"norad_id": 46114, "name": "GALAXY 30 (G-30)", "group": "intelsat", "lat": -0.013132000878387642, "lon": -51.73417829206341, "alt_km": 35779.42991200046, "timestamp": "2025-12-10T23:33:12.494947+00:00", "meta": {"OBJECT_NAME": "GALAXY 30 (G-30)", "OBJECT_ID": "2020-056C", "EPOCH": "2025-12-10T10:25:19.291584", "MEAN_MOTION": 1.00272067, "ECCENTRICITY": 0.00023436, "INCLINATION": 0.017, "RA_OF_ASC_NODE": 325.7585, "ARG_OF_PERICENTER": 293.7361, "MEAN_ANOMALY": 211.2428, "EPHEMERIS_TYPE": 0, "CLASSIFICATION_TYPE": "U", "NORAD_CAT_ID": 46114, "ELEMENT_SET_NO": 999, "REV_AT_EPOCH": 1940, "BSTAR": 0, "MEAN_MOTION_DOT": 4.1e-07, "MEAN_MOTION_DDOT": 0}, "tle": {"line1": "1 46114U 20056C   25344.43425106  .00000041  00000+0  00000+0 0  9995", "line2": "2 46114   0.0170 325.7585 0002343 293.7361 211.2428  1.00272067 19403"}}, "geometry": {"type": "Point", "coordinates": [-51.73417829206341, -0.013132000878387642]}}, {"type": "Feature", "properties": {"norad_id": 54026, "name": "GALAXY 33 (G-33)", "group": "intelsat", "lat": -0.01039464992363956, "lon": -59.72400273984557, "alt_km": 35779.88697166807, "timestamp": "2025-12-10T23:33:12.494958+00:00", "meta": {"OBJECT_NAME": "GALAXY 33 (G-33)", "OBJECT_ID": "2022-128A", "EPOCH": "2025-12-10T11:08:38.645088", "MEAN_MOTION": 1.0027273, "ECCENTRICITY": 0.00021797, "INCLINATION": 0.0108, "RA_OF_ASC_NODE": 311.8948, "ARG_OF_PERICENTER": 297.9463, "MEAN_ANOMALY": 223.7665, "EPHEMERIS_TYPE": 0, "CLASSIFICATION_TYPE": "U", "NORAD_CAT_ID": 54026, "ELEMENT_SET_NO": 999, "REV_AT_EPOCH": 1185, "BSTAR": 0, "MEAN_MOTION_DOT": 8.3e-07, "MEAN_MOTION_DDOT": 0}, "tle": {"line1": "1 54026U 22128A   25344.46433617  .00000083  00000+0  00000+0 0  9993", "line2": "2 54026   0.0108 311.8948 0002179 297.9463 223.7665  1.00272730 11859"}}, "geometry": {"type": "Point", "coordinates": [-59.72400273984557, -0.01039464992363956]}}, {"type": "Feature", "properties": {"norad_id": 54027, "name": "GALAXY 34 (G-34)", "group": "intelsat", "lat": -0.01989821777885591, "lon": -55.6708896889976, "alt_km": 35783.006349521354, "timestamp": "2025-12-10T23:33:12.494969+00:00", "meta": {"OBJECT_NAME": "GALAXY 34 (G-34)", "OBJECT_ID": "2022-128B", "EPOCH": "2025-12-10T09:47:38.588064", "MEAN_MOTION": 1.00270677, "ECCENTRICITY": 0.00013213, "INCLINATION": 0.0236, "RA_OF_ASC_NODE": 330.0219, "ARG_OF_PERICENTER": 280.9634, "MEAN_ANOMALY": 206.3809, "EPHEMERIS_TYPE": 0, "CLASSIFICATION_TYPE": "U", "NORAD_CAT_ID": 54027, "ELEMENT_SET_NO": 999, "REV_AT_EPOCH": 1202, "BSTAR": 0, "MEAN_MOTION_DOT": 0, "MEAN_MOTION_DDOT": 0}, "tle": {"line1": "1 54027U 22128B   25344.40808551  .00000000  00000+0  00000+0 0  9990", "line2": "2 54027   0.0236 330.0219 0001321 280.9634 206.3809  1.00270677 12021"}}, "geometry": {"type": "Point", "coordinates": [-55.6708896889976, -0.01989821777885591]}}, {"type": "Feature", "properties": {"norad_id": 54243, "name": "GALAXY 31 (G-31)", "group": "intelsat", "lat": 0.0036171100358493857, "lon": -47.73050580038169, "alt_km": 35779.94986773277, "timestamp": "2025-12-10T23:33:12.494980+00:00", "meta": {"OBJECT_NAME": "GALAXY 31 (G-31)", "OBJECT_ID": "2022-153A", "EPOCH": "2025-12-10T12:41:54.623616", "MEAN_MOTION": 1.0027233, "ECCENTRICITY": 0.00018592, "INCLINATION": 0.016, "RA_OF_ASC_NODE": 257.0938, "ARG_OF_PERICENTER": 14.4702, "MEAN_ANOMALY": 237.4238, "EPHEMERIS_TYPE": 0, "CLASSIFICATION_TYPE": "U", "NORAD_CAT_ID": 54243, "ELEMENT_SET_NO": 999, "REV_AT_EPOCH": 524, "BSTAR": 0, "MEAN_MOTION_DOT": 1.7e-07, "MEAN_MOTION_DDOT": 0}, "tle": {"line1": "1 54243U 22153A   25344.52910444  .00000017  00000+0  00000+0 0  9994", "line2": "2 54243   0.0160 257.0938 0001859  14.4702 237.4238  1.00272330  5240"}}, "geometry": {"type": "Point", "coordinates": [-47.73050580038169, 0.0036171100358493857]}}, {"type": "Feature", "properties": {"norad_id": 54244, "name": "GALAXY 32 (G-32)", "group": "intelsat", "lat": 0.0008450720086103063, "lon": -17.74462878709943, "alt_km": 35776.853766529195, "timestamp": "2025-12-10T23:33:12.494990+00:00", "meta": {"OBJECT_NAME": "GALAXY 32 (G-32)", "OBJECT_ID": "2022-153B", "EPOCH": "2025-12-10T02:50:17.145600", "MEAN_MOTION": 1.00270509, "ECCENTRICITY": 0.00027154, "INCLINATION": 0.0093, "RA_OF_ASC_NODE": 341.2572, "ARG_OF_PERICENTER": 328.5466, "MEAN_ANOMALY": 80.861, "EPHEMERIS_TYPE": 0, "CLASSIFICATION_TYPE": "U", "NORAD_CAT_ID": 54244, "ELEMENT_SET_NO": 999, "REV_AT_EPOCH": 1124, "BSTAR": 0, "MEAN_MOTION_DOT": -1.71e-06, "MEAN_MOTION_DDOT": 0}, "tle": {"line1": "1 54244U 22153B   25344.11825400 -.00000171  00000+0  00000+0 0  9999", "line2": "2 54244   0.0093 341.2572 0002715 328.5466  80.8610  1.00270509 11241"}}, "geometry": {"type": "Point", "coordinates": [-17.74462878709943, 0.0008450720086103063]}}, {"type": "Feature", "properties": {"norad_id": 54741, "name": "GALAXY 35 (G-35)", "group": "intelsat", "lat": -0.022127297915946226, "lon": -19.814432712732742, "alt_km": 35783.356625211585, "timestamp": "2025-12-10T23:33:12.495001+00:00", "meta": {"OBJECT_NAME": "GALAXY 35 (G-35)", "OBJECT_ID": "2022-170A", "EPOCH": "2025-12-10T04:23:38.620896", "MEAN_MOTION": 1.00271022, "ECCENTRICITY": 0.00026129, "INCLINATION": 0.031, "RA_OF_ASC_NODE": 99.3994, "ARG_OF_PERICENTER": 166.4389, "MEAN_ANOMALY": 146.146, "EPHEMERIS_TYPE": 0, "CLASSIFICATION_TYPE": "U", "NORAD_CAT_ID": 54741, "ELEMENT_SET_NO": 999, "REV_AT_EPOCH": 1099, "BSTAR": 0, "MEAN_MOTION_DOT": -1.59e-06, "MEAN_MOTION_DDOT": 0}, "tle": {"line1": "1 54741U 22170A   25344.18308589 -.00000159  00000+0  00000+0 0  9997", "line2": "2 54741   0.0310  99.3994 0002612 166.4389 146.1460  1.00271022 10994"}}, "geometry": {"type": "Point", "coordinates": [-19.814432712732742, -0.022127297915946226]}}, {"type": "Feature", "properties": {"norad_id": 54742, "name": "GALAXY 36 (G-36)", "group": "intelsat", "lat": -0.010487847661532703, "lon": -15.756495973427151, "alt_km": 35785.077697348475, "timestamp": "2025-12-10T23:33:12.495012+00:00", "meta": {"OBJECT_NAME": "GALAXY 36 (G-36)", "OBJECT_ID": "2022-170B", "EPOCH": "2025-12-10T05:31:38.713152", "MEAN_MOTION": 1.00270681, "ECCENTRICITY": 5.405e-05, "INCLINATION": 0.0118, "RA_OF_ASC_NODE": 35.1013, "ARG_OF_PERICENTER": 255.8985, "MEAN_ANOMALY": 142.1142, "EPHEMERIS_TYPE": 0, "CLASSIFICATION_TYPE": "U", "NORAD_CAT_ID": 54742, "ELEMENT_SET_NO": 999, "REV_AT_EPOCH": 1087, "BSTAR": 0, "MEAN_MOTION_DOT": -1.82e-06, "MEAN_MOTION_DDOT": 0}, "tle": {"line1": "1 54742U 22170B   25344.23030918 -.00000182  00000+0  00000+0 0  9998", "line2": "2 54742   0.0118  35.1013 0000540 255.8985 142.1142  1.00270681 10874"}}, "geometry": {"type": "Point", "coordinates": [-15.756495973427151, -0.010487847661532703]}}, {"type": "Feature", "properties": {"norad_id": 57493, "name": "GALAXY 37 (G-37)", "group": "intelsat", "lat": -0.019595375338031993, "lon": -53.7295850214874, "alt_km": 35778.65384790907, "timestamp": "2025-12-10T23:33:12.495022+00:00", "meta": {"OBJECT_NAME": "GALAXY 37 (G-37)", "OBJECT_ID": "2023-112A", "EPOCH": "2025-12-10T11:00:38.718144", "MEAN_MOTION": 1.00272064, "ECCENTRICITY": 0.00022886, "INCLINATION": 0.0097, "RA_OF_ASC_NODE": 0.5935, "ARG_OF_PERICENTER": 264.7649, "MEAN_ANOMALY": 212.2417, "EPHEMERIS_TYPE": 0, "CLASSIFICATION_TYPE": "U", "NORAD_CAT_ID": 57493, "ELEMENT_SET_NO": 999, "REV_AT_EPOCH": 865, "BSTAR": 0, "MEAN_MOTION_DOT": 5.2e-07, "MEAN_MOTION_DDOT": 0}, "tle": {"line1": "1 57493U 23112A   25344.45878146  .00000052  00000+0  00000+0 0  9993", "line2": "2 57493   0.0097   0.5935 0002288 264.7649 212.2417  1.00272064  8656"}}, "geometry": {"type": "Point", "coordinates": [-53.7295850214874, -0.019595375338031993]}}]}